
# Worst residual: 20.66 km
# MJD 59885.000000 (2022 Nov  2  0:00)
A10OKAD = A10Pt1J
1 79978U 22999ZZD 22306.49919926  .00000000  00000-0  00000-0 0 17655
2 79978 004.5900 210.5257 6383054 300.2374 145.9693 00.94104740    06

# Worst residual: 22.35 km
# MJD 59886.000000 (2022 Nov  3  0:00)
A10OKAD = A10Pt1J
1 79978U 22999ZZD 22307.49919926  .00000000  00000-0  00000-0 0 17656
2 79978 004.5847 210.5575 6371887 300.2847 124.6035 00.94120927    04

# Worst residual: 21.07 km
# MJD 59887.000000 (2022 Nov  4  0:00)
A10OKAD = A10Pt1J
1 79978U 22999ZZD 22308.49919926  .00000000  00000-0  00000-0 0 17657
2 79978 004.5772 210.6350 6359639 300.2849 103.2347 00.94132739    09

# Worst residual: 14.30 km
# MJD 59888.000000 (2022 Nov  5  0:00)
A10OKAD = A10Pt1J
1 79978U 22999ZZD 22309.49919926  .00000000  00000-0  00000-0 0 17658
2 79978 004.5688 210.7321 6346851 300.2662 081.8597 00.94136637    08

# Worst residual: 18.14 km
# MJD 59889.000000 (2022 Nov  6  0:00)
A10OKAD = A10Pt1J
1 79978U 22999ZZD 22310.49919926  .00000000  00000-0  00000-0 0 17650
2 79978 004.5587 210.8590 6334021 300.2148 060.4898 00.94133572    02

# Worst residual: 24.36 km
# MJD 59890.000000 (2022 Nov  7  0:00)
A10OKAD = A10Pt1J
1 79978U 22999ZZD 22311.49919926  .00000000  00000-0  00000-0 0 17651
2 79978 004.5477 211.0033 6321674 300.1437 039.1263 00.94123393    04

# Worst residual: 26.51 km
# MJD 59891.000000 (2022 Nov  8  0:00)
A10OKAD = A10Pt1J
1 79978U 22999ZZD 22312.49919926  .00000000  00000-0  00000-0 0 17652
2 79978 004.5366 211.1574 6309767 300.0592 017.7729 00.94107739    07

# Worst residual: 23.65 km
# MJD 59892.000000 (2022 Nov  9  0:00)
A10OKAD = A10Pt1J
1 79978U 22999ZZD 22313.49919926  .00000000  00000-0  00000-0 0 17653
2 79978 004.5257 211.3149 6298247 299.9664 356.4339 00.94089251    00

# Worst residual: 26.05 km
# MJD 59893.000000 (2022 Nov 10  0:00)
A10OKAD = A10Pt1J
1 79978U 22999ZZD 22314.49919926  .00000000  00000-0  00000-0 0 17654
2 79978 004.5154 211.4746 6286680 299.8693 335.1040 00.94072253    06

# Worst residual: 23.85 km
# MJD 59894.000000 (2022 Nov 11  0:00)
A10OKAD = A10Pt1J
1 79978U 22999ZZD 22315.49919926  .00000000  00000-0  00000-0 0 17655
2 79978 004.5043 211.6295 6274741 299.7754 313.7845 00.94058365    09

# Worst residual: 16.92 km
# MJD 59895.000000 (2022 Nov 12  0:00)
A10OKAD = A10Pt1J
1 79978U 22999ZZD 22316.49919926  .00000000  00000-0  00000-0 0 17656
2 79978 004.4956 211.8110 6262544 299.6546 292.4675 00.94051750    00

# Worst residual: 19.77 km
# MJD 59896.000000 (2022 Nov 13  0:00)
A10OKAD = A10Pt1J
1 79978U 22999ZZD 22317.49919926  .00000000  00000-0  00000-0 0 17657
2 79978 004.4860 211.9869 6250082 299.5424 271.1512 00.94049729    01

# Worst residual: 22.71 km
# MJD 59897.000000 (2022 Nov 14  0:00)
A10OKAD = A10Pt1J
1 79978U 22999ZZD 22318.49919926  .00000000  00000-0  00000-0 0 17658
2 79978 004.4776 212.1380 6237750 299.4573 249.8352 00.94053149    04

# Worst residual: 21.17 km
# MJD 59898.000000 (2022 Nov 15  0:00)
A10OKAD = A10Pt1J
1 79978U 22999ZZD 22319.49919926  .00000000  00000-0  00000-0 0 17659
2 79978 004.4656 212.3531 6226126 299.3077 228.5164 00.94061913    07

# Worst residual: 19.93 km
# MJD 59899.000000 (2022 Nov 16  0:00)
A10OKAD = A10Pt1J
1 79978U 22999ZZD 22320.49919926  .00000000  00000-0  00000-0 0 17651
2 79978 004.4542 212.5272 6215339 299.1933 207.2058 00.94077714    00

# Worst residual: 20.18 km
# MJD 59900.000000 (2022 Nov 17  0:00)
A10OKAD = A10Pt1J
1 79978U 22999ZZD 22321.49919926  .00000000  00000-0  00000-0 0 17652
2 79978 004.4408 212.7795 6204264 298.9952 185.9020 00.94092650    03

# Worst residual: 20.85 km
# MJD 59901.000000 (2022 Nov 18  0:00)
A10OKAD = A10Pt1J
1 79978U 22999ZZD 22322.49919926  .00000000  00000-0  00000-0 0 17653
2 79978 004.4278 212.9900 6193642 298.8341 164.5982 00.94110255    08

# Worst residual: 18.52 km
# MJD 59902.000000 (2022 Nov 19  0:00)
A10OKAD = A10Pt1J
1 79978U 22999ZZD 22323.49919926  .00000000  00000-0  00000-0 0 17654
2 79978 004.4180 213.1364 6182294 298.7310 143.3002 00.94122906    07

# Worst residual: 15.52 km
# MJD 59903.000000 (2022 Nov 20  0:00)
A10OKAD = A10Pt1J
1 79978U 22999ZZD 22324.49919926  .00000000  00000-0  00000-0 0 17655
2 79978 004.4064 213.3380 6170201 298.5717 121.9980 00.94131466    00

# Worst residual: 12.18 km
# MJD 59904.000000 (2022 Nov 21  0:00)
A10OKAD = A10Pt1J
1 79978U 22999ZZD 22325.49919926  .00000000  00000-0  00000-0 0 17656
2 79978 004.3948 213.5165 6157485 298.4367 100.6896 00.94135955    09

# Worst residual: 14.20 km
# MJD 59905.000000 (2022 Nov 22  0:00)
A10OKAD = A10Pt1J
1 79978U 22999ZZD 22326.49919926  .00000000  00000-0  00000-0 0 17657
2 79978 004.3826 213.7075 6144463 298.2911 079.3744 00.94134985    07

# Worst residual: 21.53 km
# MJD 59906.000000 (2022 Nov 23  0:00)
A10OKAD = A10Pt1J
1 79978U 22999ZZD 22327.49919926  .00000000  00000-0  00000-0 0 17658
2 79978 004.3696 213.9193 6131375 298.1243 058.0587 00.94127482    03

# Worst residual: 25.96 km
# MJD 59907.000000 (2022 Nov 24  0:00)
A10OKAD = A10Pt1J
1 79978U 22999ZZD 22328.49919926  .00000000  00000-0  00000-0 0 17659
2 79978 004.3559 214.1452 6118665 297.9404 036.7503 00.94113592    03

# Worst residual: 23.87 km
# MJD 59908.000000 (2022 Nov 25  0:00)
A10OKAD = A10Pt1J
1 79978U 22999ZZD 22329.49919926  .00000000  00000-0  00000-0 0 17650
2 79978 004.3406 214.3592 6106438 297.7639 015.4533 00.94094143    01

# Worst residual: 23.11 km
# MJD 59909.000000 (2022 Nov 26  0:00)
A10OKAD = A10Pt1J
1 79978U 22999ZZD 22330.49919926  .00000000  00000-0  00000-0 0 17652
2 79978 004.3290 214.5838 6094444 297.5713 354.1734 00.94080840    06

# Worst residual: 23.33 km
# MJD 59910.000000 (2022 Nov 27  0:00)
A10OKAD = A10Pt1J
1 79978U 22999ZZD 22331.49919926  .00000000  00000-0  00000-0 0 17653
2 79978 004.3192 214.7572 6082743 297.4316 332.8962 00.94065071    06

# Worst residual: 18.38 km
# MJD 59911.000000 (2022 Nov 28  0:00)
A10OKAD = A10Pt1J
1 79978U 22999ZZD 22332.49919926  .00000000  00000-0  00000-0 0 17654
2 79978 004.3074 214.9515 6070621 297.2719 311.6200 00.94056098    00

# Worst residual: 17.93 km
# MJD 59912.000000 (2022 Nov 29  0:00)
A10OKAD = A10Pt1J
1 79978U 22999ZZD 22333.49919926  .00000000  00000-0  00000-0 0 17655
2 79978 004.2981 215.1059 6058199 297.1557 290.3417 00.94051814    01

# Worst residual: 23.18 km
# MJD 59913.000000 (2022 Nov 30  0:00)
A10OKAD = A10Pt1J
1 79978U 22999ZZD 22334.49919926  .00000000  00000-0  00000-0 0 17656
2 79978 004.2896 215.2994 6045189 297.0029 269.0617 00.94051140    00

# Worst residual: 27.11 km
# MJD 59914.000000 (2022 Dec  1  0:00)
A10OKAD = A10Pt1J
1 79978U 22999ZZD 22335.49919926  .00000000  00000-0  00000-0 0 17657
2 79978 004.2807 215.4983 6032213 296.8437 247.7844 00.94056234    00

# Worst residual: 24.00 km
# MJD 59915.000000 (2022 Dec  2  0:00)
A10OKAD = A10Pt1J
1 79978U 22999ZZD 22336.49919926  .00000000  00000-0  00000-0 0 17658
2 79978 004.2708 215.7137 6020121 296.6664 226.5070 00.94070575    09
